[{"OBJECT_NAME":"IRIDIUM 128","OBJECT_ID":"2017-039J","EPOCH":"2026-03-09T22:17:06.660384","MEAN_MOTION":14.3421733,"ECCENTRICITY":0.00019867,"INCLINATION":86.3911,"RA_OF_ASC_NODE":66.6445,"ARG_OF_PERICENTER":95.0823,"MEAN_ANOMALY":265.0599,"EPHEMERIS_TYPE":0,"CLASSIFICATION_TYPE":"U","NORAD_CAT_ID":42811,"ELEMENT_SET_NO":999,"REV_AT_EPOCH":45575,"BSTAR":-1.154861e-5,"MEAN_MOTION_DOT":-1.3e-7,"MEAN_MOTION_DDOT":0},{"OBJECT_NAME":"COSMOS 2298","OBJECT_ID":"1994-083A","EPOCH":"2026-03-09T22:06:26.635104","MEAN_MOTION":14.31156524,"ECCENTRICITY":0.00171606,"INCLINATION":74.0313,"RA_OF_ASC_NODE":328.8798,"ARG_OF_PERICENTER":291.7759,"MEAN_ANOMALY":68.1565,"EPHEMERIS_TYPE":0,"CLASSIFICATION_TYPE":"U","NORAD_CAT_ID":23431,"ELEMENT_SET_NO":999,"REV_AT_EPOCH":62948,"BSTAR":6.8786132e-5,"MEAN_MOTION_DOT":1.56e-6,"MEAN_MOTION_DDOT":0}]
